P/2012 O2 (McNaught),e,24.4555,120.6614,183.4103,3.630089,0.1425044,0.53123428,318.5999,06/15.0/2025,2000,g 17.0,4.0
# From MPC 82320
P/2012 T2 (PANSTARRS),e,12.5699,73.8754,311.1874,5.717289,0.0720973,0.16208053,317.8144,06/15.0/2025,2000,g 10.0,4.0
# From MPC 80900
P/2012 T3 (PANSTARRS),e,9.5537,114.3251,195.4646,6.158733,0.0644862,0.61559102,309.3175,06/15.0/2025,2000,g 15.0,4.0
# From MPC 82720
P/2012 U2 (PANSTARRS),e,10.7581,185.2718,228.4457,7.125817,0.0518146,0.50047366,237.4676,06/15.0/2025,2000,g 12.5,4.0
# From MPC 82721
P/2013 AL76 (Catalina),e,144.9140,146.0933,27.1175,6.500324,0.0594705,0.68552739,272.3356,06/15.0/2025,2000,g 16.0,4.0
# From MPC 91612
P/2013 G1 (Kowalski),e,5.4571,221.3159,51.3655,6.907105,0.0542950,0.50996055,229.2021,06/15.0/2025,2000,g 11.0,4.0
# From MPC 84025
P/2013 G4 (PANSTARRS),e,5.9201,339.5876,214.5188,4.432683,0.1056098,0.40940101,115.3106,06/15.0/2025,2000,g 15.0,4.0
# From MPC 91613
P/2013 J2 (McNaught),e,15.5001,289.2897,37.8575,6.229547,0.0633898,0.65584608,273.2981,06/15.0/2025,2000,g 13.0,4.0
# From MPC 86229
P/2013 N3 (PANSTARRS),e,2.1671,17.5937,323.8802,7.405833,0.0489039,0.59088984,202.4901,06/15.0/2025,2000,g 13.0,4.0
# From MPC 85834
P/2013 N5 (PANSTARRS),e,23.4118,187.1593,176.9593,6.799374,0.0555905,0.73146351,242.2876,06/15.0/2025,2000,g 17.0,4.0
# From MPC 85834
P/2013 P1 (PANSTARRS),e,18.6867,160.7036,138.1255,8.592654,0.0391303,0.60244472,176.1840,06/15.0/2025,2000,g 12.0,4.0
# From MPEC 2022-V95
P/2013 R3 (Catalina-PANSTARRS),e,0.8654,341.8078,11.4949,3.033609,0.1865368,0.27709987,84.1534,06/15.0/2025,2000,g 14.0,4.0
# From unp
P/2013 R3-A (Catalina-PANSTARRS),e,0.8645,341.7624,11.5726,3.033349,0.1865608,0.27703231,84.2345,06/15.0/2025,2000,g  9.0,4.0
# From MPEC 2015-M77
P/2013 R3-B (Catalina-PANSTARRS),e,0.8657,341.8187,11.5082,3.033581,0.1865395,0.27707574,84.1503,06/15.0/2025,2000,g  9.0,4.0
# From MPC 85835
P/2013 T1 (PANSTARRS),e,24.2691,10.0848,346.1731,5.855247,0.0695643,0.62356844,300.8718,06/15.0/2025,2000,g 16.5,4.0
# From MPC 86643
P/2013 T2 (Schwartz),e,9.4468,0.8059,345.5647,3.493679,0.1509314,0.50019242,305.4548,06/15.0/2025,2000,g 16.0,4.0
# From MPC 91613
P/2013 W1 (PANSTARRS),e,4.7000,117.8353,1.2459,3.484838,0.1515061,0.59383415,263.1983,06/15.0/2025,2000,g 17.5,4.0
# From MPC101095
P/2013 YG46 (Spacewatch),e,7.5451,46.9213,244.4242,3.263512,0.1671769,0.46985228,146.7286,06/15.0/2025,2000,g 10.0,4.0
# From MPC 89728
P/2014 A2 (Hill),e,24.5634,106.6561,356.2018,5.921225,0.0684048,0.64668636,291.3785,06/15.0/2025,2000,g 15.0,4.0
# From MPEC 2024-F34
P/2014 C1 (TOTAS),e,3.2106,39.8421,188.2444,4.025284,0.1220420,0.34222387,224.0416,06/15.0/2025,2000,g 15.5,4.0
# From MPEC 2022-WD2
C/2014 F3 (Sheppard-Trujillo),e,6.5210,325.9777,5.1337,14.38987,0.0180559,0.60172374,26.7130,06/15.0/2025,2000,g  6.0,4.0
# From MPC 98560
P/2014 L2 (NEOWISE),e,5.1905,149.3372,182.6903,6.312326,0.0621470,0.64617990,247.7404,06/15.0/2025,2000,g 12.0,4.0
# From MPC 90769
P/2014 L3 (Hill),e,6.2538,115.5304,178.6558,8.183915,0.0420981,0.77105229,168.8913,06/15.0/2025,2000,g 16.0,4.0
# From MPC 91614
P/2014 M4 (PANSTARRS),e,3.3472,263.1999,148.1267,5.862851,0.0694290,0.59599761,264.6762,06/15.0/2025,2000,g 15.0,4.0
# From MPC 98560
P/2014 O3 (PANSTARRS),e,7.7890,87.6244,204.6569,7.587434,0.0471587,0.38242784,192.9208,06/15.0/2025,2000,g 10.5,4.0
# From MPC182878
C/2014 OG392 (PANSTARRS),e,9.0324,145.8258,255.3240,12.25619,0.0229705,0.18537315,28.8852,06/15.0/2025,2000,g  6.0,4.0
# From MPC 91616
P/2014 U4 (PANSTARRS),e,6.4222,11.9264,347.8417,3.512261,0.1497352,0.46372244,237.0863,06/15.0/2025,2000,g 18.0,4.0
# From MPC184408
C/2014 UN271 (Bernardinelli-Bernstein),h,01/16.3480/2031,95.4444,189.9612,326.0777,1.004223,10.960368,2000,2.5,3.2
# From MPC 95211
P/2014 V1 (PANSTARRS),e,22.4994,166.1808,177.6478,5.481550,0.0767978,0.53340494,291.2215,06/15.0/2025,2000,g 14.0,4.0
# From MPC105542
P/2014 W4 (PANSTARRS),e,15.2834,33.3042,67.7461,6.579545,0.0583996,0.35512423,201.2169,06/15.0/2025,2000,g 11.0,4.0
# From MPC 94281
P/2014 X1 (Elenin),e,26.0484,61.5438,33.9533,6.198050,0.0638736,0.71091359,243.3668,06/15.0/2025,2000,g 15.0,4.0
# From MPC 92275
P/2015 A3 (PANSTARRS),e,172.5514,277.4866,249.6645,7.816483,0.0451011,0.85084694,169.7910,06/15.0/2025,2000,g 20.0,4.0
# From MPC 99270
P/2015 B1 (PANSTARRS),e,18.0884,352.8496,188.6680,9.473764,0.0338003,0.36691514,120.6502,06/15.0/2025,2000,g  8.5,4.0
# From MPC109141
P/2015 B4 (Lemmon-PANSTARRS),e,1.7676,266.1370,227.0985,8.504521,0.0397401,0.56262205,150.1711,06/15.0/2025,2000,g 11.0,4.0
# From MPC101096
P/2015 C1 (TOTAS-Gibbs),e,13.8906,348.7496,178.0496,6.545844,0.0588512,0.56816584,217.3845,06/15.0/2025,2000,g 12.5,4.0
# From MPC109141
P/2015 D5 (Kowalski),e,20.5512,74.0871,39.6272,8.944172,0.0368463,0.49190334,150.4603,06/15.0/2025,2000,g  9.0,4.0
# From MPEC 2024-R10
P/2015 D6 (Lemmon-PANSTARRS),e,20.3029,45.3865,125.9004,7.119093,0.0518880,0.36267728,188.5901,06/15.0/2025,2000,g 10.5,4.0
# From MPC 95213
P/2015 K5 (PANSTARRS),e,39.9255,134.3111,106.0960,6.728067,0.0564766,0.55160267,207.6371,06/15.0/2025,2000,g 13.5,4.0
# From MPC107684
P/2015 M2 (PANSTARRS),e,3.9678,86.6990,225.7341,7.255211,0.0504346,0.17768216,180.3580,06/15.0/2025,2000,g  8.5,4.0
# From MPC 99819
P/2015 P4 (PANSTARRS),e,8.7222,104.6757,280.7423,6.048512,0.0662569,0.58502197,227.1183,06/15.0/2025,2000,g 14.0,4.0
# From MPEC 2022-K19
P/2015 PD229 (Cameron-ISON),e,2.0201,342.7490,352.6797,7.207436,0.0509369,0.32507448,183.2524,06/15.0/2025,2000,g 11.5,2.0
# From MPC 96867
P/2015 Q2 (Pimentel),e,146.5499,228.5269,244.6440,7.348131,0.0494810,0.75226458,176.2861,06/15.0/2025,2000,g 15.5,4.0
# From MPC 98562
P/2015 R1 (PANSTARRS),e,22.6812,48.3915,300.5102,5.884903,0.0690391,0.63288008,251.2180,06/15.0/2025,2000,g 14.0,4.0
# From MPC 95734
P/2015 R2 (PANSTARRS),e,15.4827,168.6021,149.8746,4.479736,0.1039502,0.45198315,18.8446,06/15.0/2025,2000,g 14.5,4.0
# From MPC102953
P/2015 TO19 (Lemmon-PANSTARRS),e,6.5055,321.6615,89.3415,4.546216,0.1016785,0.35960069,343.5756,06/15.0/2025,2000,g 14.0,4.0
# From MPC110080
P/2015 TP200 (LINEAR),e,8.7783,6.9050,82.5985,7.262582,0.0503579,0.53735841,158.4014,06/15.0/2025,2000,g 11.0,4.0
# From MPC101098
P/2015 W2 (Catalina),e,11.6207,294.0706,117.7166,7.293727,0.0500357,0.63520612,176.9990,06/15.0/2025,2000,g 13.0,4.0
# From MPEC 2023-J29
P/2015 X3 (PANSTARRS),e,24.4221,77.2550,306.9757,4.997583,0.0882194,0.43984124,316.2753,06/15.0/2025,2000,g 15.0,4.0
# From MPC115881
P/2015 X6 (PANSTARRS),e,4.5659,106.9298,329.7101,2.753109,0.2157590,0.17413165,7.4709,06/15.0/2025,2000,g 16.0,4.0
# From MPEC 2022-OB6
P/2016 A3 (PANSTARRS),e,8.5214,187.1291,340.8016,7.867360,0.0446643,0.38709927,132.7138,06/15.0/2025,2000,g 10.0,4.0
# From MPC102098
P/2016 A7 (PANSTARRS),e,16.2695,220.5910,352.7977,5.070073,0.0863342,0.56966221,298.5476,06/15.0/2025,2000,g 16.0,4.0
# From MPEC 2021-P47
P/2016 G1 (PANSTARRS),e,10.9699,204.0103,111.0871,2.583729,0.2373196,0.21002726,7.0859,06/15.0/2025,2000,g 14.0,4.0
# From MPEC 2024-C04
C/2016 J2 (Denneau),h,04/12.7073/2016,130.3749,186.2705,318.2615,1.000361,1.496305,2000,17.0,4.0
# From MPC102099
P/2016 P1 (PANSTARRS),e,24.4475,319.0202,271.0480,3.203728,0.1718781,0.28729287,251.8905,06/15.0/2025,2000,g 15.0,4.0
# From MPC184408
P/2016 P5 (COIAS),e,7.0379,185.3761,33.8676,4.700289,0.0967202,0.05730219,73.0034,06/15.0/2025,2000,g 13.2,4.0
# From MPEC 2024-H50
C/2016 Q2 (PANSTARRS),h,05/11.6241/2021,109.3259,322.3492,84.5280,1.002389,7.079915,2000,6.0,4.0
# From MPEC 2022-K19
P/2016 R4 (Gibbs),e,10.8637,168.2665,174.0990,5.337819,0.0799205,0.47472598,259.8203,06/15.0/2025,2000,g 12.5,4.0
# From MPC105543
P/2016 S1 (PANSTARRS),e,94.7319,227.6426,273.1584,8.266179,0.0414712,0.71208503,124.7624,06/15.0/2025,2000,g 12.0,4.0
# From MPC106345
P/2016 WM48 (Lemmon),e,117.6178,59.9450,36.1799,8.173540,0.0421783,0.78417705,127.7749,06/15.0/2025,2000,g 15.0,4.0
# From MPEC 2021-P47
C/2016 X1 (Lemmon),e,26.4694,256.3012,224.6134,2732,0.0000069,0.99723208,0.0000,04/30.7783/2019,2000,g  6.0,4.0
# From MPEC 2022-OB6
C/2017 B3 (LINEAR),e,54.2238,2.2467,284.7611,3321,0.0000052,0.99881562,0.0000,01/30.0995/2019,2000,g  6.0,4.0
# From MPC103847
P/2017 B4 (PANSTARRS),e,20.0584,121.4578,11.0197,4.410520,0.1064068,0.36495152,359.9130,01/05.0/2017,2000,g 14.5,4.0
# From MPEC 2022-OB6
P/2017 D1 (Fuls),e,20.7713,82.1921,8.0840,4.822069,0.0930795,0.43781730,304.6219,06/15.0/2025,2000,g 14.0,4.0
# From MPEC 2022-OB6
P/2017 D4 (PANSTARRS),e,10.5614,264.9132,212.1334,7.541950,0.0475859,0.63063361,152.2368,06/15.0/2025,2000,g 13.0,4.0
# From MPC184408
P/2017 FL36 (PANSTARRS),e,15.6870,313.4514,90.1995,2.926777,0.1968428,0.03273335,349.2535,06/15.0/2025,2000,g 14.7,4.0
# From MPEC 2024-C04
P/2017 G1 (PANSTARRS),e,5.1551,247.1368,225.2552,7.192293,0.0510979,0.65086125,170.7606,06/15.0/2025,2000,g 13.5,4.0
# From MPC108595
P/2017 G2 (PANSTARRS),e,47.9682,79.8957,105.2084,8.035470,0.0432700,0.64891800,126.6334,06/15.0/2025,2000,g 13.0,4.0
# From MPC184408
C/2017 K2 (PANSTARRS),e,87.6437,88.2219,236.1738,1793,0.0000130,0.99899624,0.0000,12/18.5803/2022,2000,g  1.5,4.0
# From MPEC 2021-N06
P/2017 K3 (Gasparovic),e,4.2723,354.1841,253.2875,5.587106,0.0746318,0.57911562,220.2836,06/15.0/2025,2000,g 14.5,4.0
# From MPEC 2021-P47
C/2017 K5 (PANSTARRS),h,03/25.5057/2020,82.2792,102.4577,171.9385,1.002936,7.677452,2000,5.0,4.0
# From MPEC 2022-OB6
C/2017 M4 (ATLAS),h,01/17.6326/2019,105.6273,66.0118,167.4115,1.000185,3.236025,2000,6.0,4.0
# From MPC114599
P/2017 P1 (PANSTARRS),e,7.6880,221.4693,122.7727,7.920910,0.0442121,0.30899748,112.8711,06/15.0/2025,2000,g 10.0,4.0
# From MPEC 2022-OB6
P/2017 S8 (PANSTARRS),e,29.8401,191.5081,254.9209,2.778637,0.2127925,0.39113189,213.4914,06/15.0/2025,2000,g 16.0,4.0
# From MPEC 2024-A43
C/2017 T2 (PANSTARRS),e,57.2841,64.4364,92.7790,1598,0.0000154,0.99899658,0.0000,05/06.0535/2020,2000,g  5.0,4.0
# From MPC115882
